[{"OBJECT_NAME":"STARLINK-3157","OBJECT_ID":"2021-104F","EPOCH":"2026-03-09T17:02:35.253600","MEAN_MOTION":15.08814953,"ECCENTRICITY":0.00011281,"INCLINATION":53.2172,"RA_OF_ASC_NODE":219.0369,"ARG_OF_PERICENTER":88.5414,"MEAN_ANOMALY":271.5707,"EPHEMERIS_TYPE":0,"CLASSIFICATION_TYPE":"U","NORAD_CAT_ID":49413,"ELEMENT_SET_NO":999,"REV_AT_EPOCH":23877,"BSTAR":0.0003291248,"MEAN_MOTION_DOT":4.951e-5,"MEAN_MOTION_DDOT":0},{"OBJECT_NAME":"ELECTRON KICK STAGE R\/B","OBJECT_ID":"2023-196B","EPOCH":"2026-03-09T10:54:03.246336","MEAN_MOTION":15.12760744,"ECCENTRICITY":0.00189263,"INCLINATION":42.0179,"RA_OF_ASC_NODE":242.1679,"ARG_OF_PERICENTER":295.0915,"MEAN_ANOMALY":64.7951,"EPHEMERIS_TYPE":0,"CLASSIFICATION_TYPE":"U","NORAD_CAT_ID":58579,"ELEMENT_SET_NO":999,"REV_AT_EPOCH":12282,"BSTAR":0.00048326039,"MEAN_MOTION_DOT":8.466e-5,"MEAN_MOTION_DDOT":0}]
